start=new Date('2023-06-01T00:00:00.000Z').valueOf();
sats=[{"BSTAR":"0.00006809500000","PERIOD":"95.838","INCLINATION":"43.0041","COUNTRY_CODE":"US","GP_ID":"232929619","MEAN_ANOMALY":"67.9711","MEAN_ELEMENT_THEORY":"SGP4","FILE":"3922037","REF_FRAME":"TEME","MEAN_MOTION_DDOT":"0.0000000000000","TIME_SYSTEM":"UTC","NORAD_CAT_ID":"55339","CLASSIFICATION_TYPE":"U","PERIAPSIS":"557.889","OBJECT_NAME":"STARLINK-5671","LAUNCH_DATE":"2023-01-26","DECAY_DATE":null,"SITE":"AFETR","OBJECT_TYPE":"PAYLOAD","TLE_LINE1":"1 55339U 23013J   23151.74302617  .00000716  00000-0  68095-4 0  9992","MEAN_MOTION_DOT":"0.00000716","MEAN_MOTION":"15.02527880","APOAPSIS":"560.324","OBJECT_ID":"2023-013J","ARG_OF_PERICENTER":"292.0945","EPOCH":"2023-05-31T17:49:57.461088","ECCENTRICITY":"0.00017550","TLE_LINE2":"2 55339  43.0041  44.5951 0001755 292.0945  67.9711 15.02527880 19331","EPHEMERIS_TYPE":"0","RCS_SIZE":"LARGE","RA_OF_ASC_NODE":"44.5951","REV_AT_EPOCH":"1933","ELEMENT_SET_NO":"999","CENTER_NAME":"EARTH","SEMIMAJOR_AXIS":"6937.242"},{"SEMIMAJOR_AXIS":"6937.236","CENTER_NAME":"EARTH","ELEMENT_SET_NO":"999","REV_AT_EPOCH":"1933","RCS_SIZE":"LARGE","RA_OF_ASC_NODE":"44.5787","ECCENTRICITY":"0.00013170","EPHEMERIS_TYPE":"0","TLE_LINE2":"2 55340  43.0045  44.5787 0001317 274.1454  85.9237 15.02529733 19336","ARG_OF_PERICENTER":"274.1454","EPOCH":"2023-05-31T17:46:45.628896","MEAN_MOTION_DOT":"0.00000158","MEAN_MOTION":"15.02529733","OBJECT_ID":"2023-013K","APOAPSIS":"560.014","OBJECT_TYPE":"PAYLOAD","SITE":"AFETR","TLE_LINE1":"1 55340U 23013K   23151.74080589  .00000158  00000-0  26761-4 0  9999","LAUNCH_DATE":"2023-01-26","DECAY_DATE":null,"OBJECT_NAME":"STARLINK-5675","CLASSIFICATION_TYPE":"U","NORAD_CAT_ID":"55340","PERIAPSIS":"558.187","FILE":"3922037","TIME_SYSTEM":"UTC","REF_FRAME":"TEME","MEAN_MOTION_DDOT":"0.0000000000000","GP_ID":"232930870","COUNTRY_CODE":"US","INCLINATION":"43.0045","PERIOD":"95.838","BSTAR":"0.00002676100000","MEAN_ELEMENT_THEORY":"SGP4","MEAN_ANOMALY":"85.9237"},{"REV_AT_EPOCH":"1935","CENTER_NAME":"EARTH","SEMIMAJOR_AXIS":"6937.224","ELEMENT_SET_NO":"999","ECCENTRICITY":"0.00012690","TLE_LINE2":"2 55341  43.0033  43.8991 0001269 275.7833  84.2865 15.02533680 19354","EPHEMERIS_TYPE":"0","RA_OF_ASC_NODE":"43.8991","RCS_SIZE":"LARGE","SITE":"AFETR","OBJECT_TYPE":"PAYLOAD","TLE_LINE1":"1 55341U 23013L   23151.87930909  .00000164  00000-0  27218-4 0  9999","LAUNCH_DATE":"2023-01-26","DECAY_DATE":null,"ARG_OF_PERICENTER":"275.7833","EPOCH":"2023-05-31T21:06:12.305376","MEAN_MOTION_DOT":"0.00000164","MEAN_MOTION":"15.02533680","APOAPSIS":"559.969","OBJECT_ID":"2023-013L","FILE":"3922037","MEAN_MOTION_DDOT":"0.0000000000000","REF_FRAME":"TEME","TIME_SYSTEM":"UTC","PERIOD":"95.838","INCLINATION":"43.0033","BSTAR":"0.00002721800000","GP_ID":"232931121","COUNTRY_CODE":"US","MEAN_ELEMENT_THEORY":"SGP4","MEAN_ANOMALY":"84.2865","OBJECT_NAME":"STARLINK-5670","NORAD_CAT_ID":"55341","CLASSIFICATION_TYPE":"U","PERIAPSIS":"558.208"},{"REV_AT_EPOCH":"1933","ELEMENT_SET_NO":"999","SEMIMAJOR_AXIS":"6937.235","CENTER_NAME":"EARTH","ECCENTRICITY":"0.00013560","EPHEMERIS_TYPE":"0","TLE_LINE2":"2 55342  43.0051  44.5745 0001356 276.6391  83.4297 15.02530080 19335","RA_OF_ASC_NODE":"44.5745","RCS_SIZE":"LARGE","LAUNCH_DATE":"2023-01-26","DECAY_DATE":null,"OBJECT_TYPE":"PAYLOAD","SITE":"AFETR","TLE_LINE1":"1 55342U 23013M   23151.73969528  .00000267  00000-0  34850-4 0  9998","MEAN_MOTION_DOT":"0.00000267","MEAN_MOTION":"15.02530080","OBJECT_ID":"2023-013M","APOAPSIS":"560.040","ARG_OF_PERICENTER":"276.6391","EPOCH":"2023-05-31T17:45:09.672192","GP_ID":"232929869","COUNTRY_CODE":"US","PERIOD":"95.838","INCLINATION":"43.0051","BSTAR":"0.00003485000000","MEAN_ELEMENT_THEORY":"SGP4","MEAN_ANOMALY":"83.4297","FILE":"3922037","TIME_SYSTEM":"UTC","MEAN_MOTION_DDOT":"0.0000000000000","REF_FRAME":"TEME","CLASSIFICATION_TYPE":"U","NORAD_CAT_ID":"55342","PERIAPSIS":"558.159","OBJECT_NAME":"STARLINK-5657"},{"DECAY_DATE":null,"LAUNCH_DATE":"2023-01-26","TLE_LINE1":"1 55343U 23013N   23151.73414497  .00000396  00000-0  44369-4 0  9998","OBJECT_TYPE":"PAYLOAD","SITE":"AFETR","OBJECT_ID":"2023-013N","APOAPSIS":"559.853","MEAN_MOTION_DOT":"0.00000396","MEAN_MOTION":"15.02533208","EPOCH":"2023-05-31T17:37:10.125408","ARG_OF_PERICENTER":"263.0981","MEAN_ANOMALY":"96.9736","MEAN_ELEMENT_THEORY":"SGP4","GP_ID":"232930119","COUNTRY_CODE":"US","PERIOD":"95.838","INCLINATION":"43.0051","BSTAR":"0.00004436900000","TIME_SYSTEM":"UTC","MEAN_MOTION_DDOT":"0.0000000000000","REF_FRAME":"TEME","FILE":"3922037","PERIAPSIS":"558.328","CLASSIFICATION_TYPE":"U","NORAD_CAT_ID":"55343","OBJECT_NAME":"STARLINK-5661","REV_AT_EPOCH":"1933","ELEMENT_SET_NO":"999","SEMIMAJOR_AXIS":"6937.225","CENTER_NAME":"EARTH","EPHEMERIS_TYPE":"0","TLE_LINE2":"2 55343  43.0051  44.5315 0001099 263.0981  96.9736 15.02533208 19330","ECCENTRICITY":"0.00010990","RCS_SIZE":"LARGE","RA_OF_ASC_NODE":"44.5315"},{"REV_AT_EPOCH":"1933","ELEMENT_SET_NO":"999","SEMIMAJOR_AXIS":"6937.224","CENTER_NAME":"EARTH","ECCENTRICITY":"0.00014210","EPHEMERIS_TYPE":"0","TLE_LINE2":"2 55344  43.0047  44.5498 0001421 275.2405  84.8275 15.02533642 19339","RA_OF_ASC_NODE":"44.5498","RCS_SIZE":"LARGE","LAUNCH_DATE":"2023-01-26","DECAY_DATE":null,"OBJECT_TYPE":"PAYLOAD","SITE":"AFETR","TLE_LINE1":"1 55344U 23013P   23151.73636276 -.00001625  00000-0 -10527-3 0  9996","MEAN_MOTION_DOT":"-0.00001625","MEAN_MOTION":"15.02533642","OBJECT_ID":"2023-013P","APOAPSIS":"560.075","ARG_OF_PERICENTER":"275.2405","EPOCH":"2023-05-31T17:40:21.742464","COUNTRY_CODE":"US","GP_ID":"232930371","INCLINATION":"43.0047","PERIOD":"95.838","BSTAR":"-0.00010527000000","MEAN_ELEMENT_THEORY":"SGP4","MEAN_ANOMALY":"84.8275","FILE":"3922037","TIME_SYSTEM":"UTC","MEAN_MOTION_DDOT":"0.0000000000000","REF_FRAME":"TEME","CLASSIFICATION_TYPE":"U","NORAD_CAT_ID":"55344","PERIAPSIS":"558.103","OBJECT_NAME":"STARLINK-5662"},{"SITE":"AFETR","OBJECT_TYPE":"PAYLOAD","TLE_LINE1":"1 55345U 23013Q   23151.93494256 -.00000018  00000-0  13740-4 0  9994","LAUNCH_DATE":"2023-01-26","DECAY_DATE":null,"ARG_OF_PERICENTER":"266.6082","EPOCH":"2023-05-31T22:26:19.037184","MEAN_MOTION":"15.02531669","MEAN_MOTION_DOT":"-0.00000018","APOAPSIS":"559.963","OBJECT_ID":"2023-013Q","FILE":"3922037","MEAN_MOTION_DDOT":"0.0000000000000","REF_FRAME":"TEME","TIME_SYSTEM":"UTC","BSTAR":"0.00001374000000","PERIOD":"95.838","INCLINATION":"43.0037","GP_ID":"232930622","COUNTRY_CODE":"US","MEAN_ANOMALY":"93.4618","MEAN_ELEMENT_THEORY":"SGP4","OBJECT_NAME":"STARLINK-5653","NORAD_CAT_ID":"55345","CLASSIFICATION_TYPE":"U","PERIAPSIS":"558.226","REV_AT_EPOCH":"1951","CENTER_NAME":"EARTH","SEMIMAJOR_AXIS":"6937.230","ELEMENT_SET_NO":"999","ECCENTRICITY":"0.00012520","TLE_LINE2":"2 55345  43.0037  30.4317 0001252 266.6082  93.4618 15.02531669 19514","EPHEMERIS_TYPE":"0","RA_OF_ASC_NODE":"30.4317","RCS_SIZE":"LARGE"},{"EPHEMERIS_TYPE":"0","TLE_LINE2":"2 55346  43.0053  43.7848 0000941 267.7240  92.3495 15.02532907 19350","ECCENTRICITY":"0.00009410","RCS_SIZE":"LARGE","RA_OF_ASC_NODE":"43.7848","REV_AT_EPOCH":"1935","SEMIMAJOR_AXIS":"6937.226","CENTER_NAME":"EARTH","ELEMENT_SET_NO":"999","TIME_SYSTEM":"UTC","MEAN_MOTION_DDOT":"0.0000000000000","REF_FRAME":"TEME","FILE":"3922037","MEAN_ELEMENT_THEORY":"SGP4","MEAN_ANOMALY":"92.3495","COUNTRY_CODE":"US","GP_ID":"232929370","PERIOD":"95.838","BSTAR":"0.00006632700000","INCLINATION":"43.0053","OBJECT_NAME":"STARLINK-5631","PERIAPSIS":"558.438","CLASSIFICATION_TYPE":"U","NORAD_CAT_ID":"55346","TLE_LINE1":"1 55346U 23013R   23151.86376957  .00000692  00000-0  66327-4 0  9990","OBJECT_TYPE":"PAYLOAD","SITE":"AFETR","DECAY_DATE":null,"LAUNCH_DATE":"2023-01-26","EPOCH":"2023-05-31T20:43:49.690848","ARG_OF_PERICENTER":"267.7240","OBJECT_ID":"2023-013R","APOAPSIS":"559.744","MEAN_MOTION_DOT":"0.00000692","MEAN_MOTION":"15.02532907"},{"ECCENTRICITY":"0.00015890","EPHEMERIS_TYPE":"0","TLE_LINE2":"2 55347  43.0055  43.6966 0001589 262.9528  97.1133 15.02525770 19350","RA_OF_ASC_NODE":"43.6966","RCS_SIZE":"LARGE","REV_AT_EPOCH":"1935","ELEMENT_SET_NO":"999","SEMIMAJOR_AXIS":"6937.248","CENTER_NAME":"EARTH","GP_ID":"232929620","COUNTRY_CODE":"US","PERIOD":"95.839","BSTAR":"-0.00001309500000","INCLINATION":"43.0055","MEAN_ANOMALY":"97.1133","MEAN_ELEMENT_THEORY":"SGP4","FILE":"3922037","TIME_SYSTEM":"UTC","REF_FRAME":"TEME","MEAN_MOTION_DDOT":"0.0000000000000","CLASSIFICATION_TYPE":"U","NORAD_CAT_ID":"55347","PERIAPSIS":"558.011","OBJECT_NAME":"STARLINK-5663","LAUNCH_DATE":"2023-01-26","DECAY_DATE":null,"OBJECT_TYPE":"PAYLOAD","SITE":"AFETR","TLE_LINE1":"1 55347U 23013S   23151.85267490 -.00000381  00000-0 -13095-4 0  9992","MEAN_MOTION":"15.02525770","MEAN_MOTION_DOT":"-0.00000381","OBJECT_ID":"2023-013S","APOAPSIS":"560.215","ARG_OF_PERICENTER":"262.9528","EPOCH":"2023-05-31T20:27:51.111360"},{"SEMIMAJOR_AXIS":"6937.230","CENTER_NAME":"EARTH","ELEMENT_SET_NO":"999","REV_AT_EPOCH":"1935","RA_OF_ASC_NODE":"43.7677","RCS_SIZE":"LARGE","EPHEMERIS_TYPE":"0","TLE_LINE2":"2 55348  43.0054  43.7677 0000863 267.1371  92.9372 15.02531555 19353","ECCENTRICITY":"0.00008630","EPOCH":"2023-05-31T20:40:37.557120","ARG_OF_PERICENTER":"267.1371","OBJECT_ID":"2023-013T","APOAPSIS":"559.694","MEAN_MOTION_DOT":"0.00002760","MEAN_MOTION":"15.02531555","TLE_LINE1":"1 55348U 23013T   23151.86154580  .00002760  00000-0  21934-3 0  9990","OBJECT_TYPE":"PAYLOAD","SITE":"AFETR","DECAY_DATE":null,"LAUNCH_DATE":"2023-01-26","OBJECT_NAME":"STARLINK-5609","PERIAPSIS":"558.497","CLASSIFICATION_TYPE":"U","NORAD_CAT_ID":"55348","TIME_SYSTEM":"UTC","REF_FRAME":"TEME","MEAN_MOTION_DDOT":"0.0000000000000","FILE":"3922037","MEAN_ELEMENT_THEORY":"SGP4","MEAN_ANOMALY":"92.9372","GP_ID":"232930871","COUNTRY_CODE":"US","BSTAR":"0.00021934000000","PERIOD":"95.838","INCLINATION":"43.0054"}];
